{
  "norad_id": 59600,
  "name": "GSAT0227 (GALILEO 30)",
  "history": [
    {
      "epoch": "2026-03-25T16:59:50.260704Z",
      "apogee_km": 23223.94019551199,
      "perigee_km": 23220.290484398476,
      "latitude_deg": -8.991615883862995e-06,
      "longitude_deg": 25.28296521553194,
      "height_km": 23220.599716962122,
      "semi_major_axis_km": 29600.252339955234,
      "eccentricity": 6.165e-05,
      "inclination_deg": 55.0598,
      "raan_deg": 103.4096,
      "arg_perigee_deg": 12.6919,
      "mean_anomaly_deg": 347.3562,
      "mean_motion_rev_day": 1.70474585
    }
  ]
}